$$SOE
2460154.500000000, A.D. 2023-Jul-29 00:00:00.0000, 2.529665519955510E+08, 2.758167886738751E+08, -7.179465047796145E+06,
2460161.500000000, A.D. 2023-Aug-05 00:00:00.0000, 2.435400099937263E+08, 2.825751083543865E+08, -6.165739269719541E+06,
2460168.500000000, A.D. 2023-Aug-12 00:00:00.0000, 2.338860512653544E+08, 2.890693534033262E+08, -5.146256742135704E+06,
2460175.500000000, A.D. 2023-Aug-19 00:00:00.0000, 2.240115337423860E+08, 2.952907837821292E+08, -4.121923168402344E+06,
2460182.500000000, A.D. 2023-Aug-26 00:00:00.0000, 2.139236993368961E+08, 3.012307935396754E+08, -3.093667568385690E+06,
2460189.500000000, A.D. 2023-Sep-02 00:00:00.0000, 2.036301762056417E+08, 3.068809298468870E+08, -2.062441617262706E+06,
2460196.500000000, A.D. 2023-Sep-09 00:00:00.0000, 1.931389800475910E+08, 3.122329125771498E+08, -1.029218892624706E+06,
2460203.500000000, A.D. 2023-Sep-16 00:00:00.0000, 1.824585145247750E+08, 3.172786543306710E+08, 5.005954045444727E+03,
2460210.500000000, A.D. 2023-Sep-23 00:00:00.0000, 1.715975711465387E+08, 3.220102811392352E+08, 1.039218090462551E+06,
2460217.500000000, A.D. 2023-Sep-30 00:00:00.0000, 1.605653282054231E+08, 3.264201549825508E+08, 2.072383592590168E+06,
2460224.500000000, A.D. 2023-Oct-07 00:00:00.0000, 1.493713463384175E+08, 3.305008974985889E+08, 3.103450903721333E+06,
2460231.500000000, A.D. 2023-Oct-14 00:00:00.0000, 1.380255616796823E+08, 3.342454114957809E+08, 4.131352300205544E+06,
2460238.500000000, A.D. 2023-Oct-21 00:00:00.0000, 1.265382797727704E+08, 3.376469017874500E+08, 5.155005199862674E+06,
2460245.500000000, A.D. 2023-Oct-28 00:00:00.0000, 1.149201687616978E+08, 3.406988975057498E+08, 6.173313628248513E+06,
2460252.500000000, A.D. 2023-Nov-04 00:00:00.0000, 1.031822505519032E+08, 3.433952750112584E+08, 7.185169894049048E+06,
2460259.500000000, A.D. 2023-Nov-11 00:00:00.0000, 9.133589006488198E+07, 3.457302806840510E+08, 8.189456407382101E+06,
2460266.500000000, A.D. 2023-Nov-18 00:00:00.0000, 7.939278276368174E+07, 3.476985534171276E+08, 9.185047614002913E+06,
2460273.500000000, A.D. 2023-Nov-25 00:00:00.0000, 6.736494049477677E+07, 3.492951467157364E+08, 1.017081203798169E+07,
2460280.500000000, A.D. 2023-Dec-02 00:00:00.0000, 5.526467566189247E+07, 3.505155502635875E+08, 1.114561442544700E+07,
2460287.500000000, A.D. 2023-Dec-09 00:00:00.0000, 4.310458380914444E+07, 3.513557107588658E+08, 1.210831797206980E+07,
2460294.500000000, A.D. 2023-Dec-16 00:00:00.0000, 3.089752491087448E+07, 3.518120518862410E+08, 1.305778660210298E+07,
2460301.500000000, A.D. 2023-Dec-23 00:00:00.0000, 1.865660373689049E+07, 3.518814939626465E+08, 1.399288731491706E+07,
2460308.500000000, A.D. 2023-Dec-30 00:00:00.0000, 6.395147987378713E+06, 3.515614741563392E+08, 1.491249279776748E+07,
2460315.500000000, A.D. 2024-Jan-06 00:00:00.0000, -5.873317526140462E+06, 3.508499647618163E+08, 1.581548426304561E+07,
2460322.500000000, A.D. 2024-Jan-13 00:00:00.0000, -1.813509742680107E+07, 3.497454875706934E+08, 1.670075405996375E+07,
2460329.500000000, A.D. 2024-Jan-20 00:00:00.0000, -3.037635174858604E+07, 3.482471272906263E+08, 1.756720818845034E+07,
2460336.500000000, A.D. 2024-Jan-27 00:00:00.0000, -4.258312327408760E+07, 3.463545445326656E+08, 1.841376894115958E+07,
2460343.500000000, A.D. 2024-Feb-03 00:00:00.0000, -5.474136655135512E+07, 3.440679872869450E+08, 1.923937762138811E+07,
2460350.500000000, A.D. 2024-Feb-10 00:00:00.0000, -6.683697818799819E+07, 3.413883004729774E+08, 2.004299727308126E+07,
2460357.500000000, A.D. 2024-Feb-17 00:00:00.0000, -7.885582814530385E+07, 3.383169334599072E+08, 2.082361539552124E+07,
2460364.500000000, A.D. 2024-Feb-24 00:00:00.0000, -9.078379184523107E+07, 3.348559454701103E+08, 2.158024662467057E+07,
2460371.500000000, A.D. 2024-Mar-02 00:00:00.0000, -1.026067828984710E+08, 3.310080087452888E+08, 2.231193535951264E+07,
2460378.500000000, A.D. 2024-Mar-09 00:00:00.0000, -1.143107861423922E+08, 3.267764093386698E+08, 2.301775829907319E+07,
2460385.500000000, A.D. 2024-Mar-16 00:00:00.0000, -1.258818904131283E+08, 3.221650456733668E+08, 2.369682685363705E+07,
2460392.500000000, A.D. 2024-Mar-23 00:00:00.0000, -1.373063209695743E+08, 3.171784259378989E+08, 2.434828951433685E+07,
2460399.500000000, A.D. 2024-Mar-30 00:00:00.0000, -1.485704736188593E+08, 3.118216642766399E+08, 2.497133436898699E+07,
2460406.500000000, A.D. 2024-Apr-06 00:00:00.0000, -1.596609500859057E+08, 3.061004724058116E+08, 2.556519145009297E+07,
2460413.500000000, A.D. 2024-Apr-13 00:00:00.0000, -1.705645908790532E+08, 3.000211475002631E+08, 2.612913464335406E+07,
2460420.500000000, A.D. 2024-Apr-20 00:00:00.0000, -1.812685064163463E+08, 2.935905590688550E+08, 2.666248345006445E+07,
2460427.500000000, A.D. 2024-Apr-27 00:00:00.0000, -1.917601077381701E+08, 2.868161343208334E+08, 2.716460468474871E+07,
2460434.500000000, A.D. 2024-May-04 00:00:00.0000, -2.020271365308820E+08, 2.797058413957480E+08, 2.763491403165857E+07,
2460441.500000000, A.D. 2024-May-11 00:00:00.0000, -2.120576940459243E+08, 2.722681704485766E+08, 2.807287742069544E+07,
2460448.500000000, A.D. 2024-May-18 00:00:00.0000, -2.218402686661206E+08, 2.645121127234585E+08, 2.847801220937362E+07,
2460455.500000000, A.D. 2024-May-25 00:00:00.0000, -2.313637619401629E+08, 2.564471377370267E+08, 2.884988816200791E+07,
2460462.500000000, A.D. 2024-Jun-01 00:00:00.0000, -2.406175128848684E+08, 2.480831686563867E+08, 2.918812821169333E+07,
2460469.500000000, A.D. 2024-Jun-08 00:00:00.0000, -2.495913201835002E+08, 2.394305560036306E+08, 2.949240897810797E+07,
2460476.500000000, A.D. 2024-Jun-15 00:00:00.0000, -2.582754617721668E+08, 2.305000503970392E+08, 2.976246104831499E+07,
2460483.500000000, A.D. 2024-Jun-22 00:00:00.0000, -2.666607127309024E+08, 2.213027756783918E+08, 2.999806920995772E+07,
2460490.500000000, A.D. 2024-Jun-29 00:00:00.0000, -2.747383635331392E+08, 2.118502007909516E+08, 3.019907268577993E+07,
2460497.500000000, A.D. 2024-Jul-06 00:00:00.0000, -2.825002359516689E+08, 2.021541081280311E+08, 3.036536492934248E+07,
2460504.500000000, A.D. 2024-Jul-13 00:00:00.0000, -2.899386946284492E+08, 1.922265613604018E+08, 3.049689303911377E+07,
2460511.500000000, A.D. 2024-Jul-20 00:00:00.0000, -2.970466562770707E+08, 1.820798740772576E+08, 3.059365707353927E+07,
2460518.500000000, A.D. 2024-Jul-27 00:00:00.0000, -3.038175971721289E+08, 1.717265784698191E+08, 3.065570925642770E+07,
2460525.500000000, A.D. 2024-Aug-03 00:00:00.0000, -3.102455586638413E+08, 1.611793938605775E+08, 3.068315302526659E+07,
2460532.500000000, A.D. 2024-Aug-10 00:00:00.0000, -3.163251505860218E+08, 1.504511952418995E+08, 3.067614191674215E+07,
2460539.500000000, A.D. 2024-Aug-17 00:00:00.0000, -3.220515525674524E+08, 1.395549820104760E+08, 3.063487829866120E+07,
2460546.500000000, A.D. 2024-Aug-24 00:00:00.0000, -3.274205132927395E+08, 1.285038470378496E+08, 3.055961195684964E+07,
2460553.500000000, A.D. 2024-Aug-31 00:00:00.0000, -3.324283476804620E+08, 1.173109461712098E+08, 3.045063853454328E+07,
2460560.500000000, A.D. 2024-Sep-07 00:00:00.0000, -3.370719317033105E+08, 1.059894684341529E+08, 3.030829781393643E+07,
2460567.500000000, A.D. 2024-Sep-14 00:00:00.0000, -3.413486948624373E+08, 9.455260805121635E+07, 3.013297192608390E+07,
2460574.500000000, A.D. 2024-Sep-21 00:00:00.0000, -3.452566124521724E+08, 8.301353882106097E+07, 2.992508372161609E+07,
2460581.500000000, A.D. 2024-Sep-28 00:00:00.0000, -3.487941982212383E+08, 7.138538771080896E+07, 2.968509509624199E+07,
2460588.500000000, A.D. 2024-Oct-05 00:00:00.0000, -3.519604938814783E+08, 5.968120776318637E+07, 2.941350494763661E+07,
2460595.500000000, A.D. 2024-Oct-12 00:00:00.0000, -3.547550559423215E+08, 4.791395336920293E+07, 2.911084705254794E+07,
2460602.500000000, A.D. 2024-Oct-19 00:00:00.0000, -3.571779417476103E+08, 3.609645769095746E+07, 2.877768801442640E+07,
2460609.500000000, A.D. 2024-Oct-26 00:00:00.0000, -3.592296948794923E+08, 2.424141147951312E+07, 2.841462523098749E+07,
2460616.500000000, A.D. 2024-Nov-02 00:00:00.0000, -3.609113298013249E+08, 1.236134317588607E+07, 2.802228485744543E+07,
2460623.500000000, A.D. 2024-Nov-09 00:00:00.0000, -3.622243157681650E+08, 4.686003393699639E+05, 2.760131976890043E+07,
2460630.500000000, A.D. 2024-Nov-16 00:00:00.0000, -3.631705601012928E+08, -1.142466758522129E+07, 2.715240752941380E+07,
2460637.500000000, A.D. 2024-Nov-23 00:00:00.0000, -3.637523908989387E+08, -2.330652521067451E+07, 2.667624836855795E+07,
2460644.500000000, A.D. 2024-Nov-30 00:00:00.0000, -3.639725390896497E+08, -3.516526591251574E+07, 2.617356315128224E+07,
2460651.500000000, A.D. 2024-Dec-07 00:00:00.0000, -3.638341195180461E+08, -4.698942489329796E+07, 2.564509134464856E+07,
2460658.500000000, A.D. 2024-Dec-14 00:00:00.0000, -3.633406118542590E+08, -5.876778940815873E+07, 2.509158915141816E+07,
2460665.500000000, A.D. 2024-Dec-21 00:00:00.0000, -3.624958437430832E+08, -7.048940742695996E+07, 2.451382792774566E+07,
2460672.500000000, A.D. 2024-Dec-28 00:00:00.0000, -3.613039743148803E+08, -8.214359774103546E+07, 2.391259246709684E+07,
2460679.500000000, A.D. 2025-Jan-04 00:00:00.0000, -3.597694755474600E+08, -9.371995918114042E+07, 2.328867911138294E+07,
2460686.500000000, A.D. 2025-Jan-11 00:00:00.0000, -3.578971133739803E+08, -1.052083773335648E+08, 2.264289399593677E+07,
2460693.500000000, A.D. 2025-Jan-18 00:00:00.0000, -3.556919295205960E+08, -1.165990297273087E+08, 2.197605144026797E+07,
2460700.500000000, A.D. 2025-Jan-25 00:00:00.0000, -3.531592238945231E+08, -1.278823900250969E+08, 2.128897242598126E+07,
2460707.500000000, A.D. 2025-Feb-01 00:00:00.0000, -3.503045373917161E+08, -1.390492313069181E+08, 2.058248314419163E+07,
2460714.500000000, A.D. 2025-Feb-08 00:00:00.0000, -3.471336351163533E+08, -1.500906284853866E+08, 1.985741361026774E+07,
2460721.500000000, A.D. 2025-Feb-15 00:00:00.0000, -3.436524900264664E+08, -1.609979599330573E+08, 1.911459634254077E+07,
$$EOE